[{"OBJECT_NAME":"STARLINK-33719","OBJECT_ID":"2025-076K","EPOCH":"2026-03-09T23:12:24.835104","MEAN_MOTION":15.2760131,"ECCENTRICITY":0.00012851,"INCLINATION":43.0018,"RA_OF_ASC_NODE":320.0605,"ARG_OF_PERICENTER":258.3619,"MEAN_ANOMALY":101.7089,"EPHEMERIS_TYPE":0,"CLASSIFICATION_TYPE":"U","NORAD_CAT_ID":63578,"ELEMENT_SET_NO":999,"REV_AT_EPOCH":5187,"BSTAR":0.0011620972,"MEAN_MOTION_DOT":0.00031875,"MEAN_MOTION_DDOT":0},{"OBJECT_NAME":"OBJECT L","OBJECT_ID":"2024-024L","EPOCH":"2026-03-09T22:36:05.522976","MEAN_MOTION":15.29373491,"ECCENTRICITY":0.00073185,"INCLINATION":97.3169,"RA_OF_ASC_NODE":137.7038,"ARG_OF_PERICENTER":167.6369,"MEAN_ANOMALY":192.5052,"EPHEMERIS_TYPE":0,"CLASSIFICATION_TYPE":"U","NORAD_CAT_ID":58927,"ELEMENT_SET_NO":999,"REV_AT_EPOCH":9318,"BSTAR":0.00043092344,"MEAN_MOTION_DOT":0.00012217,"MEAN_MOTION_DDOT":0}]
